CCSDS_OMM_VERS = 2.0
CREATION_DATE  = 
ORIGINATOR     = 

OBJECT_NAME    = DISKSAT D
OBJECT_ID      = 2025-305C
CENTER_NAME    = EARTH
REF_FRAME      = TEME
TIME_SYSTEM    = UTC
MEAN_ELEMENT_THEORY = SGP/SGP4

EPOCH          = 2026-01-14T07:43:53.324544
MEAN_MOTION    = 15.06295213
ECCENTRICITY   = .00019355
INCLINATION    = 45.0014
RA_OF_ASC_NODE = 178.3625
ARG_OF_PERICENTER = 39.6713
MEAN_ANOMALY   = 320.4303

EPHEMERIS_TYPE = 0
CLASSIFICATION_TYPE = U
NORAD_CAT_ID   = 67221
ELEMENT_SET_NO = 999
REV_AT_EPOCH   = 409
BSTAR          = .42463836E-3
MEAN_MOTION_DOT = .6103E-4
MEAN_MOTION_DDOT = 0

CCSDS_OMM_VERS = 2.0
CREATION_DATE  = 
ORIGINATOR     = 

OBJECT_NAME    = DISKSAT A
OBJECT_ID      = 2025-305D
CENTER_NAME    = EARTH
REF_FRAME      = TEME
TIME_SYSTEM    = UTC
MEAN_ELEMENT_THEORY = SGP/SGP4

EPOCH          = 2026-01-14T10:56:35.177280
MEAN_MOTION    = 15.06261587
ECCENTRICITY   = .00018164
INCLINATION    = 45.0018
RA_OF_ASC_NODE = 177.6702
ARG_OF_PERICENTER = 50.8998
MEAN_ANOMALY   = 309.2038

EPHEMERIS_TYPE = 0
CLASSIFICATION_TYPE = U
NORAD_CAT_ID   = 67222
ELEMENT_SET_NO = 999
REV_AT_EPOCH   = 410
BSTAR          = .46918124E-3
MEAN_MOTION_DOT = .6762E-4
MEAN_MOTION_DDOT = 0

CCSDS_OMM_VERS = 2.0
CREATION_DATE  = 
ORIGINATOR     = 

OBJECT_NAME    = ELECTRON KICK STAGE R/B
OBJECT_ID      = 2025-305E
CENTER_NAME    = EARTH
REF_FRAME      = TEME
TIME_SYSTEM    = UTC
MEAN_ELEMENT_THEORY = SGP/SGP4

EPOCH          = 2026-01-14T02:53:07.679328
MEAN_MOTION    = 15.53808067
ECCENTRICITY   = .01624541
INCLINATION    = 44.9835
RA_OF_ASC_NODE = 169.3074
ARG_OF_PERICENTER = 295.5936
MEAN_ANOMALY   = 62.8246

EPHEMERIS_TYPE = 0
CLASSIFICATION_TYPE = U
NORAD_CAT_ID   = 67223
ELEMENT_SET_NO = 999
REV_AT_EPOCH   = 418
BSTAR          = .6848761E-3
MEAN_MOTION_DOT = .79259E-3
MEAN_MOTION_DDOT = .1015503E-4

CCSDS_OMM_VERS = 2.0
CREATION_DATE  = 
ORIGINATOR     = 

OBJECT_NAME    = TJS-23
OBJECT_ID      = 2025-306A
CENTER_NAME    = EARTH
REF_FRAME      = TEME
TIME_SYSTEM    = UTC
MEAN_ELEMENT_THEORY = SGP/SGP4

EPOCH          = 2026-01-14T00:37:59.415168
MEAN_MOTION    = 1.00269976
ECCENTRICITY   = .00005022
INCLINATION    = 5.9383
RA_OF_ASC_NODE = 298.2831
ARG_OF_PERICENTER = 60.1468
MEAN_ANOMALY   = 300.0577

EPHEMERIS_TYPE = 0
CLASSIFICATION_TYPE = U
NORAD_CAT_ID   = 67226
ELEMENT_SET_NO = 999
REV_AT_EPOCH   = 34
BSTAR          = 0
MEAN_MOTION_DOT = .43E-6
MEAN_MOTION_DDOT = 0

CCSDS_OMM_VERS = 2.0
CREATION_DATE  = 
ORIGINATOR     = 

OBJECT_NAME    = CZ-5 R/B
OBJECT_ID      = 2025-306B
CENTER_NAME    = EARTH
REF_FRAME      = TEME
TIME_SYSTEM    = UTC
MEAN_ELEMENT_THEORY = SGP/SGP4

EPOCH          = 2026-01-14T03:30:35.927424
MEAN_MOTION    = 1.92528837
ECCENTRICITY   = .75779031
INCLINATION    = 16.2725
RA_OF_ASC_NODE = 290.8683
ARG_OF_PERICENTER = 194.1146
MEAN_ANOMALY   = 117.2677

EPHEMERIS_TYPE = 0
CLASSIFICATION_TYPE = U
NORAD_CAT_ID   = 67227
ELEMENT_SET_NO = 999
REV_AT_EPOCH   = 49
BSTAR          = .18958467E-2
MEAN_MOTION_DOT = .6763E-4
MEAN_MOTION_DDOT = 0

CCSDS_OMM_VERS = 2.0
CREATION_DATE  = 
ORIGINATOR     = 

OBJECT_NAME    = QPS-SAR-15
OBJECT_ID      = 2025-307A
CENTER_NAME    = EARTH
REF_FRAME      = TEME
TIME_SYSTEM    = UTC
MEAN_ELEMENT_THEORY = SGP/SGP4

EPOCH          = 2026-01-14T07:32:08.919168
MEAN_MOTION    = 14.97364030
ECCENTRICITY   = .00077801
INCLINATION    = 42.0083
RA_OF_ASC_NODE = 351.9477
ARG_OF_PERICENTER = 64.1856
MEAN_ANOMALY   = 295.9771

EPHEMERIS_TYPE = 0
CLASSIFICATION_TYPE = U
NORAD_CAT_ID   = 67228
ELEMENT_SET_NO = 999
REV_AT_EPOCH   = 360
BSTAR          = .27845196E-3
MEAN_MOTION_DOT = .311E-4
MEAN_MOTION_DDOT = 0

CCSDS_OMM_VERS = 2.0
CREATION_DATE  = 
ORIGINATOR     = 

OBJECT_NAME    = ELECTRON R/B
OBJECT_ID      = 2025-307B
CENTER_NAME    = EARTH
REF_FRAME      = TEME
TIME_SYSTEM    = UTC
MEAN_ELEMENT_THEORY = SGP/SGP4

EPOCH          = 2026-01-14T07:45:00.105696
MEAN_MOTION    = 15.86227085
ECCENTRICITY   = .01415177
INCLINATION    = 41.9914
RA_OF_ASC_NODE = 336.9594
ARG_OF_PERICENTER = 53.6043
MEAN_ANOMALY   = 307.7773

EPHEMERIS_TYPE = 0
CLASSIFICATION_TYPE = U
NORAD_CAT_ID   = 67229
ELEMENT_SET_NO = 999
REV_AT_EPOCH   = 377
BSTAR          = .15023261E-2
MEAN_MOTION_DOT = .911702E-2
MEAN_MOTION_DDOT = .33019302E-3

CCSDS_OMM_VERS = 2.0
CREATION_DATE  = 
ORIGINATOR     = 

OBJECT_NAME    = ELECTRON KICK STAGE R/B
OBJECT_ID      = 2025-307C
CENTER_NAME    = EARTH
REF_FRAME      = TEME
TIME_SYSTEM    = UTC
MEAN_ELEMENT_THEORY = SGP/SGP4

EPOCH          = 2026-01-14T13:20:08.443392
MEAN_MOTION    = 16.17656153
ECCENTRICITY   = .0063292
INCLINATION    = 41.9969
RA_OF_ASC_NODE = 333.4518
ARG_OF_PERICENTER = 92.3270
MEAN_ANOMALY   = 268.4846

EPHEMERIS_TYPE = 0
CLASSIFICATION_TYPE = U
NORAD_CAT_ID   = 67230
ELEMENT_SET_NO = 999
REV_AT_EPOCH   = 223
BSTAR          = .14445E-2
MEAN_MOTION_DOT = .3705386E-1
MEAN_MOTION_DDOT = .82363E-5

CCSDS_OMM_VERS = 2.0
CREATION_DATE  = 
ORIGINATOR     = 

OBJECT_NAME    = SPACEMOBILE-006
OBJECT_ID      = 2025-309A
CENTER_NAME    = EARTH
REF_FRAME      = TEME
TIME_SYSTEM    = UTC
MEAN_ELEMENT_THEORY = SGP/SGP4

EPOCH          = 2026-01-14T07:44:00.940704
MEAN_MOTION    = 15.17741344
ECCENTRICITY   = .0011905
INCLINATION    = 52.9987
RA_OF_ASC_NODE = 315.9376
ARG_OF_PERICENTER = 27.4004
MEAN_ANOMALY   = 332.7615

EPHEMERIS_TYPE = 0
CLASSIFICATION_TYPE = U
NORAD_CAT_ID   = 67232
ELEMENT_SET_NO = 999
REV_AT_EPOCH   = 322
BSTAR          = .14334288E-4
MEAN_MOTION_DOT = -.28E-6
MEAN_MOTION_DDOT = 0

CCSDS_OMM_VERS = 2.0
CREATION_DATE  = 
ORIGINATOR     = 

OBJECT_NAME    = LVM3 R/B
OBJECT_ID      = 2025-309B
CENTER_NAME    = EARTH
REF_FRAME      = TEME
TIME_SYSTEM    = UTC
MEAN_ELEMENT_THEORY = SGP/SGP4

EPOCH          = 2026-01-14T15:01:32.470464
MEAN_MOTION    = 15.19671928
ECCENTRICITY   = .00117059
INCLINATION    = 52.9284
RA_OF_ASC_NODE = 314.0393
ARG_OF_PERICENTER = 53.1550
MEAN_ANOMALY   = 307.0515

EPHEMERIS_TYPE = 0
CLASSIFICATION_TYPE = U
NORAD_CAT_ID   = 67233
ELEMENT_SET_NO = 999
REV_AT_EPOCH   = 327
BSTAR          = .23545723E-3
MEAN_MOTION_DOT = .4772E-4
MEAN_MOTION_DDOT = 0

CCSDS_OMM_VERS = 2.0
CREATION_DATE  = 
ORIGINATOR     = 

OBJECT_NAME    = 2025-310A
OBJECT_ID      = 2025-310A
CENTER_NAME    = EARTH
REF_FRAME      = TEME
TIME_SYSTEM    = UTC
MEAN_ELEMENT_THEORY = SGP/SGP4

EPOCH          = 2026-01-14T14:05:36.208032
MEAN_MOTION    = 14.75705509
ECCENTRICITY   = .00018976
INCLINATION    = 97.9663
RA_OF_ASC_NODE = 24.1010
ARG_OF_PERICENTER = 180.2235
MEAN_ANOMALY   = 179.8974

EPHEMERIS_TYPE = 0
CLASSIFICATION_TYPE = U
NORAD_CAT_ID   = 67234
ELEMENT_SET_NO = 999
REV_AT_EPOCH   = 297
BSTAR          = .9384763E-5
MEAN_MOTION_DOT = .14E-6
MEAN_MOTION_DDOT = 0

CCSDS_OMM_VERS = 2.0
CREATION_DATE  = 
ORIGINATOR     = 

OBJECT_NAME    = SL-4 R/B
OBJECT_ID      = 2025-310B
CENTER_NAME    = EARTH
REF_FRAME      = TEME
TIME_SYSTEM    = UTC
MEAN_ELEMENT_THEORY = SGP/SGP4

EPOCH          = 2026-01-13T12:41:31.572960
MEAN_MOTION    = 15.58601207
ECCENTRICITY   = .02692124
INCLINATION    = 97.9611
RA_OF_ASC_NODE = 25.1455
ARG_OF_PERICENTER = 8.1947
MEAN_ANOMALY   = 352.3572

EPHEMERIS_TYPE = 0
CLASSIFICATION_TYPE = U
NORAD_CAT_ID   = 67235
ELEMENT_SET_NO = 999
REV_AT_EPOCH   = 294
BSTAR          = .59113359E-3
MEAN_MOTION_DOT = .292788E-2
MEAN_MOTION_DDOT = .2399346E-5

CCSDS_OMM_VERS = 2.0
CREATION_DATE  = 
ORIGINATOR     = 

OBJECT_NAME    = HULIANWANG DIGUI-128
OBJECT_ID      = 2025-311A
CENTER_NAME    = EARTH
REF_FRAME      = TEME
TIME_SYSTEM    = UTC
MEAN_ELEMENT_THEORY = SGP/SGP4

EPOCH          = 2026-01-14T11:37:25.298112
MEAN_MOTION    = 13.90210486
ECCENTRICITY   = .00065619
INCLINATION    = 50.0102
RA_OF_ASC_NODE = 318.0117
ARG_OF_PERICENTER = 342.5461
MEAN_ANOMALY   = 17.5211

EPHEMERIS_TYPE = 0
CLASSIFICATION_TYPE = U
NORAD_CAT_ID   = 67236
ELEMENT_SET_NO = 999
REV_AT_EPOCH   = 272
BSTAR          = .84468838E-4
MEAN_MOTION_DOT = -.41E-6
MEAN_MOTION_DDOT = 0

CCSDS_OMM_VERS = 2.0
CREATION_DATE  = 
ORIGINATOR     = 

OBJECT_NAME    = HULIANWANG DIGUI-129
OBJECT_ID      = 2025-311B
CENTER_NAME    = EARTH
REF_FRAME      = TEME
TIME_SYSTEM    = UTC
MEAN_ELEMENT_THEORY = SGP/SGP4

EPOCH          = 2026-01-14T11:39:14.116320
MEAN_MOTION    = 13.90166754
ECCENTRICITY   = .00078084
INCLINATION    = 50.0091
RA_OF_ASC_NODE = 318.0156
ARG_OF_PERICENTER = 344.1130
MEAN_ANOMALY   = 15.9522

EPHEMERIS_TYPE = 0
CLASSIFICATION_TYPE = U
NORAD_CAT_ID   = 67237
ELEMENT_SET_NO = 999
REV_AT_EPOCH   = 272
BSTAR          = .79534439E-4
MEAN_MOTION_DOT = -.47E-6
MEAN_MOTION_DDOT = 0

CCSDS_OMM_VERS = 2.0
CREATION_DATE  = 
ORIGINATOR     = 

OBJECT_NAME    = HULIANWANG DIGUI-130
OBJECT_ID      = 2025-311C
CENTER_NAME    = EARTH
REF_FRAME      = TEME
TIME_SYSTEM    = UTC
MEAN_ELEMENT_THEORY = SGP/SGP4

EPOCH          = 2026-01-14T08:21:49.025376
MEAN_MOTION    = 13.90218346
ECCENTRICITY   = .00077634
INCLINATION    = 50.0072
RA_OF_ASC_NODE = 318.6176
ARG_OF_PERICENTER = 321.0926
MEAN_ANOMALY   = 38.9413

EPHEMERIS_TYPE = 0
CLASSIFICATION_TYPE = U
NORAD_CAT_ID   = 67238
ELEMENT_SET_NO = 999
REV_AT_EPOCH   = 270
BSTAR          = .90717734E-4
MEAN_MOTION_DOT = -.33E-6
MEAN_MOTION_DDOT = 0

